NIMIQ 2                 
1 27632U 02062A   26183.63227993 -.00000063  00000+0  00000+0 0  9999
2 27632   9.4794  56.7324 0005647  41.2267 301.1490  1.00272160 44337
USA 167                 
1 27691U 03008A   26183.62985325  .00000009  00000+0  00000+0 0  9993
2 27691  10.9898  43.2675 0003408 317.7414  24.7152  1.00272223  6928
USA 169 (MILSTAR-2 4)   
1 27711U 03012A   26183.86256984 -.00000234  00000+0  00000+0 0  9990
2 27711  12.3717  29.7102 0100221  10.0010 343.8596  1.00271362 33107
ASIASAT 4               
1 27718U 03014A   26183.86084742 -.00000214  00000+0  00000+0 0  9998
2 27718   4.7433  75.5494 0002776  26.1187 276.6668  1.00272750 45452
HELLAS-SAT 2            
1 27811U 03020A   26183.36676347 -.00000078  00000+0  00000+0 0  9990
2 27811   7.3900  67.7034 0003239  57.6400 277.0736  1.00272209 42995
THURAYA-2               
1 27825U 03026A   26183.76397633  .00000132  00000+0  00000+0 0  9993
2 27825   8.8630  31.9065 0002673  16.5352 191.4030  1.00270745 84506
OPTUS C1                
1 27831U 03028B   26183.69959270 -.00000144  00000+0  00000+0 0  9999
2 27831   6.9260  69.2230 0005675  28.6615 230.4683  1.00271483 53212
USA 170                 
1 27875U 03040A   26183.85289851  .00000132  00000+0  00000+0 0  9996
2 27875  10.5312  47.7972 0001718  42.7502 161.5742  1.00272797 33159
GALAXY 13 (HORIZONS-1)  
1 27954U 03044A   26183.76674928  .00000143  00000+0  00000+0 0  9993
2 27954   1.4587  83.6642 0001702  13.9275 309.2111  1.00272356 46722
YAMAL 202               
1 28089U 03053A   26183.68230366 -.00000073  00000+0  00000+0 0  9991
2 28089   6.3818  70.7514 0003316  22.7258 236.4110  1.00271841 82852
UFO 11 (USA 174)        
1 28117U 03057A   26183.82353458 -.00000098  00000+0  00000+0 0  9998
2 28117   8.9382  33.7480 0002941  80.5050 178.6943  1.00273349 82603
USA 176 (DSP 22)        
1 28158U 04004A   26183.43022464 -.00000290  00000+0  00000+0 0  9997
2 28158  12.0816  25.9539 0000858 315.6529  44.4742  1.00271611 33087
ABS-4 (MOBISAT-1)       
1 28184U 04007A   26183.77626213  .00000047  00000+0  00000+0 0  9997
2 28184   6.0800  71.8178 0004514  29.5842 159.8079  1.00270314 52492
INTELSAT 10-02          
1 28358U 04022A   26183.72500597  .00000000  00000+0  00000+0 0  9997
2 28358   0.0404 262.6446 0000213 262.7454  15.3732  1.00271789 80714
ANIK F2                 
1 28378U 04027A   26183.63184660 -.00000041  00000+0  00000+0 0  9999
2 28378   3.3250  79.2431 0004082  20.4562 297.3127  1.00271857 41414
AMC-15                  
1 28446U 04041A   26183.63305993 -.00000078  00000+0  00000+0 0  9995
2 28446   0.0151 352.5863 0002483 110.1812 300.7536  1.00271839 79456
NSS-10                  
1 28526U 05003A   26183.28809317 -.00000245  00000+0  00000+0 0  9999
2 28526   6.4850  70.2716 0003105  25.7363 250.5794  1.00273242 53300
INMARSAT 4-F1           
1 28628U 05009A   26183.76042259  .00000041  00000+0  00000+0 0  9998
2 28628   5.1880  42.7717 0002921  62.0997 267.7876  1.00271810 77822
DIRECTV 8               
1 28659U 05019A   26183.89110304  .00000000  00000+0  00000+0 0  9999
2 28659   0.0190  31.0169 0003293  82.7314   8.9290  1.00269721 77239
GALAXY 28 (G-28)        
1 28702U 05022A   26183.79109625 -.00000191  00000+0  00000+0 0  9997
2 28702   3.3367  78.7516 0002601  16.9040  82.8679  1.00270423 52136
THAICOM 4               
1 28786U 05028A   26183.82464361 -.00000352  00000+0  00000+0 0  9999
2 28786   0.2836  85.6987 0001911   3.6553 247.8857  1.00270940 52404
ANIK F1R                
1 28868U 05036A   26183.70393649 -.00000067  00000+0  00000+0 0  9999
2 28868   4.3500  76.3919 0004294  14.1430 336.3221  1.00272038 46602
SYRACUSE 3A             
1 28885U 05041B   26183.68732654  .00000137  00000+0  00000+0 0  9991
2 28885   4.6809  75.6466 0002768  23.4153 115.7696  1.00274772 75901
INMARSAT 4-F2           
1 28899U 05044A   26183.48765168 -.00000252  00000+0  00000+0 0  9992
2 28899   5.1138  43.6644 0003205  48.1907 147.7098  1.00270461 75674
METEOSAT-9 (MSG-2)      
1 28912U 05049B   26183.76303863  .00000130  00000+0  00000+0 0  9998
2 28912   9.3943  54.0128 0002566 359.4901 187.7563  1.00267373  7151
EUTELSAT 174A           
1 28924U 05052A   26183.53725601  .00000017  00000+0  00000+0 0  9992
2 28924   4.2551  76.3424 0006171  25.8902 185.7697  1.00269298 52480
ECHOSTAR 10             
1 28935U 06003A   26183.70332983 -.00000045  00000+0  00000+0 0  9999
2 28935   0.0319 310.8600 0001743 113.8423 359.0532  1.00272360 74613
SPAINSAT                
1 28945U 06007A   26183.30525032 -.00000207  00000+0  00000+0 0  9999
2 28945   0.6002  86.3082 0005059  13.9420 259.8020  1.00269972 74365
JCSAT-5A                
1 29045U 06010A   26183.83445458 -.00000317  00000+0  00000+0 0  9998
2 29045   1.1479  84.0789 0002158   5.8687 263.3670  1.00273033 73927
ASTRA 1KR               
1 29055U 06012A   26183.84729547  .00000129  00000+0  00000+0 0  9996
2 29055   0.5120  83.2278 0003685  11.7767 149.8916  1.00271544 45856
GALAXY 16 (G-16)        
1 29236U 06023A   26183.63427328 -.00000116  00000+0  00000+0 0  9995
2 29236   0.0142  98.6071 0002766 359.0063 312.3991  1.00271833 73125
EUTELSAT 33F            
1 29270U 06032A   26183.85953218  .00000165  00000+0  00000+0 0  9992
2 29270   1.6997  82.0813 0003682  18.4891 162.8273  1.00272959 47461
