OBJECT_NAME,OBJECT_ID,EPOCH,MEAN_MOTION,ECCENTRICITY,INCLINATION,RA_OF_ASC_NODE,ARG_OF_PERICENTER,MEAN_ANOMALY,EPHEMERIS_TYPE,CLASSIFICATION_TYPE,NORAD_CAT_ID,ELEMENT_SET_NO,REV_AT_EPOCH,BSTAR,MEAN_MOTION_DOT,MEAN_MOTION_DDOT
NIMIQ 2,2002-062A,2026-07-02T15:10:28.985952,1.00272160,.00056479,9.4794,56.7324,41.2267,301.1490,0,U,27632,999,4433,0,-.63E-6,0
USA 167,2003-008A,2026-07-02T15:06:59.320800,1.00272223,.00034089,10.9898,43.2675,317.7414,24.7152,0,U,27691,999,692,0,.9E-7,0
USA 169 (MILSTAR-2 4),2003-012A,2026-07-02T20:42:06.034176,1.00271362,.01002213,12.3717,29.7102,10.0010,343.8596,0,U,27711,999,3310,0,-.234E-5,0
ASIASAT 4,2003-014A,2026-07-02T20:39:37.217088,1.00272750,.00027766,4.7433,75.5494,26.1187,276.6668,0,U,27718,999,4545,0,-.214E-5,0
HELLAS-SAT 2,2003-020A,2026-07-02T08:48:08.363808,1.00272209,.0003239,7.3900,67.7034,57.6400,277.0736,0,U,27811,999,4299,0,-.78E-6,0
THURAYA-2,2003-026A,2026-07-02T18:20:07.554912,1.00270745,.0002673,8.8630,31.9065,16.5352,191.4030,0,U,27825,999,8450,0,.132E-5,0
OPTUS C1,2003-028B,2026-07-02T16:47:24.809280,1.00271483,.00056752,6.9260,69.2230,28.6615,230.4683,0,U,27831,999,5321,0,-.144E-5,0
USA 170,2003-040A,2026-07-02T20:28:10.431264,1.00272797,.00017181,10.5312,47.7972,42.7502,161.5742,0,U,27875,999,3315,0,.132E-5,0
GALAXY 13 (HORIZONS-1),2003-044A,2026-07-02T18:24:07.137792,1.00272356,.0001702,1.4587,83.6642,13.9275,309.2111,0,U,27954,999,4672,0,.143E-5,0
YAMAL 202,2003-053A,2026-07-02T16:22:31.036224,1.00271841,.00033164,6.3818,70.7514,22.7258,236.4110,0,U,28089,999,8285,0,-.73E-6,0
UFO 11 (USA 174),2003-057A,2026-07-02T19:45:53.387712,1.00273349,.00029419,8.9382,33.7480,80.5050,178.6943,0,U,28117,999,8260,0,-.98E-6,0
USA 176 (DSP 22),2004-004A,2026-07-02T10:19:31.408896,1.00271611,.0000858,12.0816,25.9539,315.6529,44.4742,0,U,28158,999,3308,0,-.29E-5,0
ABS-4 (MOBISAT-1),2004-007A,2026-07-02T18:37:49.048032,1.00270314,.0004514,6.0800,71.8178,29.5842,159.8079,0,U,28184,999,5249,0,.47E-6,0
INTELSAT 10-02,2004-022A,2026-07-02T17:24:00.515808,1.00271789,.00002137,0.0404,262.6446,262.7454,15.3732,0,U,28358,999,8071,0,0,0
ANIK F2,2004-027A,2026-07-02T15:09:51.546240,1.00271857,.00040829,3.3250,79.2431,20.4562,297.3127,0,U,28378,999,4141,0,-.41E-6,0
AMC-15,2004-041A,2026-07-02T15:11:36.377952,1.00271839,.00024834,0.0151,352.5863,110.1812,300.7536,0,U,28446,999,7945,0,-.78E-6,0
NSS-10,2005-003A,2026-07-02T06:54:51.249888,1.00273242,.0003105,6.4850,70.2716,25.7363,250.5794,0,U,28526,999,5330,0,-.245E-5,0
INMARSAT 4-F1,2005-009A,2026-07-02T18:15:00.511776,1.00271810,.00029215,5.1880,42.7717,62.0997,267.7876,0,U,28628,999,7782,0,.41E-6,0
DIRECTV 8,2005-019A,2026-07-02T21:23:11.302656,1.00269721,.00032938,0.0190,31.0169,82.7314,8.9290,0,U,28659,999,7723,0,0,0
GALAXY 28 (G-28),2005-022A,2026-07-02T18:59:10.716000,1.00270423,.0002601,3.3367,78.7516,16.9040,82.8679,0,U,28702,999,5213,0,-.191E-5,0
THAICOM 4,2005-028A,2026-07-02T19:47:29.207904,1.00270940,.0001911,0.2836,85.6987,3.6553,247.8857,0,U,28786,999,5240,0,-.352E-5,0
ANIK F1R,2005-036A,2026-07-02T16:53:40.112736,1.00272038,.00042942,4.3500,76.3919,14.1430,336.3221,0,U,28868,999,4660,0,-.67E-6,0
SYRACUSE 3A,2005-041B,2026-07-02T16:29:45.013056,1.00274772,.00027683,4.6809,75.6466,23.4153,115.7696,0,U,28885,999,7590,0,.137E-5,0
INMARSAT 4-F2,2005-044A,2026-07-02T11:42:13.105152,1.00270461,.0003205,5.1138,43.6644,48.1907,147.7098,0,U,28899,999,7567,0,-.252E-5,0
METEOSAT-9 (MSG-2),2005-049B,2026-07-02T18:18:46.537632,1.00267373,.00025668,9.3943,54.0128,359.4901,187.7563,0,U,28912,999,715,0,.13E-5,0
EUTELSAT 174A,2005-052A,2026-07-02T12:53:38.919264,1.00269298,.0006171,4.2551,76.3424,25.8902,185.7697,0,U,28924,999,5248,0,.17E-6,0
ECHOSTAR 10,2006-003A,2026-07-02T16:52:47.697312,1.00272360,.00017432,0.0319,310.8600,113.8423,359.0532,0,U,28935,999,7461,0,-.45E-6,0
SPAINSAT,2006-007A,2026-07-02T07:19:33.627648,1.00269972,.0005059,0.6002,86.3082,13.9420,259.8020,0,U,28945,999,7436,0,-.207E-5,0
JCSAT-5A,2006-010A,2026-07-02T20:01:36.875712,1.00273033,.00021584,1.1479,84.0789,5.8687,263.3670,0,U,29045,999,7392,0,-.317E-5,0
ASTRA 1KR,2006-012A,2026-07-02T20:20:06.328608,1.00271544,.00036851,0.5120,83.2278,11.7767,149.8916,0,U,29055,999,4585,0,.129E-5,0
GALAXY 16 (G-16),2006-023A,2026-07-02T15:13:21.211392,1.00271833,.0002766,0.0142,98.6071,359.0063,312.3991,0,U,29236,999,7312,0,-.116E-5,0
EUTELSAT 33F,2006-032A,2026-07-02T20:37:43.580352,1.00272959,.00036823,1.6997,82.0813,18.4891,162.8273,0,U,29270,999,4746,0,.165E-5,0
